FLOCK 3P-55             
1 42041U 17008CX  17073.61478325  .00001776  00000-0  80014-4 0  9999
2 42041  97.5078 135.2166 0007743 177.3311 182.7953 15.22376573  4153
